{
    "links": {
        "self": "http://www.neowsapp.com/rest/v1/neo/54053776?api_key=iIulBulltgU6a56xZRHN4H3l9WmuAYTsLGpBGhQ2"
    },
    "id": "54053776",
    "neo_reference_id": "54053776",
    "name": "(2020 RK1)",
    "designation": "2020 RK1",
    "nasa_jpl_url": "http://ssd.jpl.nasa.gov/sbdb.cgi?sstr=54053776",
    "absolute_magnitude_h": 25.509,
    "estimated_diameter": {
        "kilometers": {
            "estimated_diameter_min": 0.0210259185,
            "estimated_diameter_max": 0.047015383
        },
        "meters": {
            "estimated_diameter_min": 21.0259184963,
            "estimated_diameter_max": 47.0153830472
        },
        "miles": {
            "estimated_diameter_min": 0.013064896,
            "estimated_diameter_max": 0.0292139956
        },
        "feet": {
            "estimated_diameter_min": 68.9826744395,
            "estimated_diameter_max": 154.2499493165
        }
    },
    "is_potentially_hazardous_asteroid": false,
    "close_approach_data": [
        {
            "close_approach_date": "2017-10-05",
            "close_approach_date_full": "2017-Oct-05 01:42",
            "epoch_date_close_approach": 1507167720000,
            "relative_velocity": {
                "kilometers_per_second": "25.3895347879",
                "kilometers_per_hour": "91402.3252363478",
                "miles_per_hour": "56793.8503669962"
            },
            "miss_distance": {
                "astronomical": "0.4489643909",
                "lunar": "174.6471480601",
                "kilometers": "67164116.584487383",
                "miles": "41733846.8214085654"
            },
            "orbiting_body": "Earth"
        },
        {
            "close_approach_date": "2020-09-04",
            "close_approach_date_full": "2020-Sep-04 01:52",
            "epoch_date_close_approach": 1599184320000,
            "relative_velocity": {
                "kilometers_per_second": "12.1851849801",
                "kilometers_per_hour": "43866.6659284972",
                "miles_per_hour": "27257.0402820709"
            },
            "miss_distance": {
                "astronomical": "0.0027940278",
                "lunar": "1.0868768142",
                "kilometers": "417980.607600786",
                "miles": "259721.1061354068"
            },
            "orbiting_body": "Earth"
        },
        {
            "close_approach_date": "2020-09-04",
            "close_approach_date_full": "2020-Sep-04 11:35",
            "epoch_date_close_approach": 1599219300000,
            "relative_velocity": {
                "kilometers_per_second": "12.1681063557",
                "kilometers_per_hour": "43805.1828806147",
                "miles_per_hour": "27218.8371071242"
            },
            "miss_distance": {
                "astronomical": "0.0030137009",
                "lunar": "1.1723296501",
                "kilometers": "450843.235457083",
                "miles": "280140.9962024254"
            },
            "orbiting_body": "Moon"
        },
        {
            "close_approach_date": "2020-10-28",
            "close_approach_date_full": "2020-Oct-28 09:30",
            "epoch_date_close_approach": 1603877400000,
            "relative_velocity": {
                "kilometers_per_second": "13.6736150718",
                "kilometers_per_hour": "49225.0142583144",
                "miles_per_hour": "30586.5095540065"
            },
            "miss_distance": {
                "astronomical": "0.0822263048",
                "lunar": "31.9860325672",
                "kilometers": "12300880.056050776",
                "miles": "7643412.4370856688"
            },
            "orbiting_body": "Mars"
        },
        {
            "close_approach_date": "2023-05-08",
            "close_approach_date_full": "2023-May-08 20:09",
            "epoch_date_close_approach": 1683576540000,
            "relative_velocity": {
                "kilometers_per_second": "19.4159015313",
                "kilometers_per_hour": "69897.2455125335",
                "miles_per_hour": "43431.4301352739"
            },
            "miss_distance": {
                "astronomical": "0.2555015534",
                "lunar": "99.3901042726",
                "kilometers": "38222488.170331258",
                "miles": "23750352.8305490404"
            },
            "orbiting_body": "Earth"
        }
    ],
    "orbital_data": {
        "orbit_id": "3",
        "orbit_determination_date": "2020-09-16 07:59:14",
        "first_observation_date": "2020-09-08",
        "last_observation_date": "2020-09-15",
        "data_arc_in_days": 7,
        "observations_used": 45,
        "orbit_uncertainty": "8",
        "minimum_orbit_intersection": ".0022972",
        "jupiter_tisserand_invariant": "3.602",
        "epoch_osculation": "2459103.5",
        "eccentricity": ".5592049354461947",
        "semi_major_axis": "2.025254705587438",
        "inclination": "3.360397572568242",
        "ascending_node_longitude": "159.7526096320689",
        "orbital_period": "1052.732187386239",
        "perihelion_distance": ".8927222786873126",
        "perihelion_argument": "135.1127401639546",
        "aphelion_distance": "3.157787132487563",
        "perihelion_time": "2459061.619353566627",
        "mean_anomaly": "14.32181222980184",
        "mean_motion": ".341967315442136",
        "equinox": "J2000",
        "orbit_class": {
            "orbit_class_type": "APO",
            "orbit_class_description": "Near-Earth asteroid orbits which cross the Earth’s orbit similar to that of 1862 Apollo",
            "orbit_class_range": "a (semi-major axis) > 1.0 AU; q (perihelion) < 1.017 AU"
        }
    },
    "is_sentry_object": false
}